[{"OBJECT_NAME":"ARCTIC WEATHER SATELLITE","OBJECT_ID":"2024-149CD","EPOCH":"2026-03-09T17:59:50.988480","MEAN_MOTION":14.89807185,"ECCENTRICITY":0.00036824,"INCLINATION":97.6882,"RA_OF_ASC_NODE":142.0249,"ARG_OF_PERICENTER":84.5816,"MEAN_ANOMALY":275.5822,"EPHEMERIS_TYPE":0,"CLASSIFICATION_TYPE":"U","NORAD_CAT_ID":60543,"ELEMENT_SET_NO":999,"REV_AT_EPOCH":8449,"BSTAR":-0.00043535777,"MEAN_MOTION_DOT":-4.227e-5,"MEAN_MOTION_DDOT":0},{"OBJECT_NAME":"SL-14 R\/B","OBJECT_ID":"1981-082B","EPOCH":"2026-03-09T21:09:42.816384","MEAN_MOTION":14.87140972,"ECCENTRICITY":0.00173041,"INCLINATION":82.4894,"RA_OF_ASC_NODE":200.4191,"ARG_OF_PERICENTER":158.4125,"MEAN_ANOMALY":201.7826,"EPHEMERIS_TYPE":0,"CLASSIFICATION_TYPE":"U","NORAD_CAT_ID":12786,"ELEMENT_SET_NO":999,"REV_AT_EPOCH":38689,"BSTAR":8.3406244e-5,"MEAN_MOTION_DOT":7.75e-6,"MEAN_MOTION_DDOT":0}]
